{
  "type": "FeatureCollection",
  "features": [
    {
      "type": "Feature",
      "properties": {
        "norad_id": 36695,
        "name": "FENGYUN 1C DEB",
        "group": "fengyun-1c-debris",
        "lat": 55.514139608643816,
        "lon": -45.39394792722039,
        "alt_km": 698.304185993793,
        "timestamp": "2025-12-11T08:58:27.412708+00:00",
        "meta_object_name": "FENGYUN 1C DEB",
        "meta_object_id": "1999-025DZR",
        "meta_epoch": "2025-12-09T16:47:24.081792",
        "meta_mean_motion": 14.43738947,
        "meta_eccentricity": 0.02573024,
        "meta_inclination": 98.2214,
        "meta_ra_of_asc_node": 325.1368,
        "meta_arg_of_pericenter": 139.5563,
        "meta_mean_anomaly": 222.5073,
        "meta_ephemeris_type": 0,
        "meta_classification_type": "U",
        "meta_norad_cat_id": 36695,
        "meta_element_set_no": 999,
        "meta_rev_at_epoch": 89524,
        "meta_bstar": 0.00025681579,
        "meta_mean_motion_dot": 1.255e-05,
        "meta_mean_motion_ddot": 0,
        "tle_line1": "1 36695U 99025DZR 25343.69958428  .00001255  00000+0  25682-3 0  9990",
        "tle_line2": "2 36695  98.2214 325.1368 0257302 139.5563 222.5073 14.43738947895245"
      },
      "geometry": {
        "type": "Point",
        "coordinates": [
          -45.39394792722039,
          55.514139608643816
        ]
      }
    },
    {
      "type": "Feature",
      "properties": {
        "norad_id": 36696,
        "name": "FENGYUN 1C DEB",
        "group": "fengyun-1c-debris",
        "lat": -29.96518901507457,
        "lon": -0.46111845590875655,
        "alt_km": 750.7588898440217,
        "timestamp": "2025-12-11T08:58:27.412719+00:00",
        "meta_object_name": "FENGYUN 1C DEB",
        "meta_object_id": "1999-025DZS",
        "meta_epoch": "2025-12-09T07:03:23.734944",
        "meta_mean_motion": 14.39130794,
        "meta_eccentricity": 0.0023,
        "meta_inclination": 98.9925,
        "meta_ra_of_asc_node": 352.121,
        "meta_arg_of_pericenter": 339.2487,
        "meta_mean_anomaly": 20.7763,
        "meta_ephemeris_type": 0,
        "meta_classification_type": "U",
        "meta_norad_cat_id": 36696,
        "meta_element_set_no": 999,
        "meta_rev_at_epoch": 64346,
        "meta_bstar": 0.0028391,
        "meta_mean_motion_dot": 8.775e-05,
        "meta_mean_motion_ddot": 0,
        "tle_line1": "1 36696U 99025DZS 25343.29402471  .00008775  00000+0  28391-2 0  9992",
        "tle_line2": "2 36696  98.9925 352.1210 0023000 339.2487  20.7763 14.39130794643468"
      },
      "geometry": {
        "type": "Point",
        "coordinates": [
          -0.46111845590875655,
          -29.96518901507457
        ]
      }
    },
    {
      "type": "Feature",
      "properties": {
        "norad_id": 36699,
        "name": "FENGYUN 1C DEB",
        "group": "fengyun-1c-debris",
        "lat": 74.52670870670713,
        "lon": -53.04653883590097,
        "alt_km": 766.2340528220111,
        "timestamp": "2025-12-11T08:58:27.412729+00:00",
        "meta_object_name": "FENGYUN 1C DEB",
        "meta_object_id": "1999-025DZV",
        "meta_epoch": "2025-12-11T05:14:28.286880",
        "meta_mean_motion": 14.24290495,
        "meta_eccentricity": 0.009458,
        "meta_inclination": 98.5589,
        "meta_ra_of_asc_node": 339.76,
        "meta_arg_of_pericenter": 134.5119,
        "meta_mean_anomaly": 226.3839,
        "meta_ephemeris_type": 0,
        "meta_classification_type": "U",
        "meta_norad_cat_id": 36699,
        "meta_element_set_no": 999,
        "meta_rev_at_epoch": 73305,
        "meta_bstar": 0.00032955,
        "meta_mean_motion_dot": 7.55e-06,
        "meta_mean_motion_ddot": 0,
        "tle_line1": "1 36699U 99025DZV 25345.21838295  .00000755  00000+0  32955-3 0  9998",
        "tle_line2": "2 36699  98.5589 339.7600 0094580 134.5119 226.3839 14.24290495733058"
      },
      "geometry": {
        "type": "Point",
        "coordinates": [
          -53.04653883590097,
          74.52670870670713
        ]
      }
    },
    {
      "type": "Feature",
      "properties": {
        "norad_id": 36701,
        "name": "FENGYUN 1C DEB",
        "group": "fengyun-1c-debris",
        "lat": -61.78438880508903,
        "lon": -35.7835236037322,
        "alt_km": 850.4674361374009,
        "timestamp": "2025-12-11T08:58:27.412739+00:00",
        "meta_object_name": "FENGYUN 1C DEB",
        "meta_object_id": "1999-025DZX",
        "meta_epoch": "2025-12-09T15:15:38.057760",
        "meta_mean_motion": 13.71305696,
        "meta_eccentricity": 0.0260138,
        "meta_inclination": 102.7439,
        "meta_ra_of_asc_node": 296.9694,
        "meta_arg_of_pericenter": 260.5557,
        "meta_mean_anomaly": 96.6087,
        "meta_ephemeris_type": 0,
        "meta_classification_type": "U",
        "meta_norad_cat_id": 36701,
        "meta_element_set_no": 999,
        "meta_rev_at_epoch": 61096,
        "meta_bstar": 0.0037365,
        "meta_mean_motion_dot": 4.196e-05,
        "meta_mean_motion_ddot": 0,
        "tle_line1": "1 36701U 99025DZX 25343.63585715  .00004196  00000+0  37365-2 0  9994",
        "tle_line2": "2 36701 102.7439 296.9694 0260138 260.5557  96.6087 13.71305696610969"
      },
      "geometry": {
        "type": "Point",
        "coordinates": [
          -35.7835236037322,
          -61.78438880508903
        ]
      }
    },
    {
      "type": "Feature",
      "properties": {
        "norad_id": 36707,
        "name": "FENGYUN 1C DEB",
        "group": "fengyun-1c-debris",
        "lat": -1.351403568360295,
        "lon": 31.715587566739334,
        "alt_km": 859.0425649988574,
        "timestamp": "2025-12-11T08:58:27.412750+00:00",
        "meta_object_name": "FENGYUN 1C DEB",
        "meta_object_id": "1999-025EAD",
        "meta_epoch": "2025-12-09T09:32:23.366688",
        "meta_mean_motion": 14.17293777,
        "meta_eccentricity": 0.00499529,
        "meta_inclination": 98.7523,
        "meta_ra_of_asc_node": 29.5616,
        "meta_arg_of_pericenter": 131.2163,
        "meta_mean_anomaly": 229.3333,
        "meta_ephemeris_type": 0,
        "meta_classification_type": "U",
        "meta_norad_cat_id": 36707,
        "meta_element_set_no": 999,
        "meta_rev_at_epoch": 64032,
        "meta_bstar": 0.0012730756,
        "meta_mean_motion_dot": 2.562e-05,
        "meta_mean_motion_ddot": 0,
        "tle_line1": "1 36707U 99025EAD 25343.39749267  .00002562  00000+0  12731-2 0  9992",
        "tle_line2": "2 36707  98.7523  29.5616 0049952 131.2163 229.3333 14.17293777640322"
      },
      "geometry": {
        "type": "Point",
        "coordinates": [
          31.715587566739334,
          -1.351403568360295
        ]
      }
    },
    {
      "type": "Feature",
      "properties": {
        "norad_id": 36710,
        "name": "FENGYUN 1C DEB",
        "group": "fengyun-1c-debris",
        "lat": 70.70430057072097,
        "lon": -112.59734051500399,
        "alt_km": 709.2247991477016,
        "timestamp": "2025-12-11T08:58:27.412760+00:00",
        "meta_object_name": "FENGYUN 1C DEB",
        "meta_object_id": "1999-025EAG",
        "meta_epoch": "2025-12-09T10:05:53.606976",
        "meta_mean_motion": 14.49787027,
        "meta_eccentricity": 0.00678732,
        "meta_inclination": 98.3799,
        "meta_ra_of_asc_node": 40.5617,
        "meta_arg_of_pericenter": 191.5881,
        "meta_mean_anomaly": 168.3755,
        "meta_ephemeris_type": 0,
        "meta_classification_type": "U",
        "meta_norad_cat_id": 36710,
        "meta_element_set_no": 999,
        "meta_rev_at_epoch": 64905,
        "meta_bstar": 0.0022522303,
        "meta_mean_motion_dot": 8.905e-05,
        "meta_mean_motion_ddot": 0,
        "tle_line1": "1 36710U 99025EAG 25343.42075934  .00008905  00000+0  22522-2 0  9999",
        "tle_line2": "2 36710  98.3799  40.5617 0067873 191.5881 168.3755 14.49787027649059"
      },
      "geometry": {
        "type": "Point",
        "coordinates": [
          -112.59734051500399,
          70.70430057072097
        ]
      }
    },
    {
      "type": "Feature",
      "properties": {
        "norad_id": 36711,
        "name": "FENGYUN 1C DEB",
        "group": "fengyun-1c-debris",
        "lat": 17.70650726760328,
        "lon": 0.8058519785703908,
        "alt_km": 820.4101210869794,
        "timestamp": "2025-12-11T08:58:27.412770+00:00",
        "meta_object_name": "FENGYUN 1C DEB",
        "meta_object_id": "1999-025EAH",
        "meta_epoch": "2025-11-29T18:49:32.545344",
        "meta_mean_motion": 14.42080972,
        "meta_eccentricity": 0.01000486,
        "meta_inclination": 100.8061,
        "meta_ra_of_asc_node": 349.6584,
        "meta_arg_of_pericenter": 244.1532,
        "meta_mean_anomaly": 114.9305,
        "meta_ephemeris_type": 0,
        "meta_classification_type": "U",
        "meta_norad_cat_id": 36711,
        "meta_element_set_no": 999,
        "meta_rev_at_epoch": 64124,
        "meta_bstar": 0.0024295961,
        "meta_mean_motion_dot": 8.419e-05,
        "meta_mean_motion_ddot": 0,
        "tle_line1": "1 36711U 99025EAH 25333.78440446  .00008419  00000+0  24296-2 0  9992",
        "tle_line2": "2 36711 100.8061 349.6584 0100048 244.1532 114.9305 14.42080972641246"
      },
      "geometry": {
        "type": "Point",
        "coordinates": [
          0.8058519785703908,
          17.70650726760328
        ]
      }
    }
  ]
}